{"type": "FeatureCollection", "features": [{"type": "Feature", "properties": {"parcel": "face-0", "footprint_m2": 1, "points": 12, "height_m": 0.03, "flat_top": 1.0, "verdict": "vegetation/terrain (filtered)"}, "geometry": {"type": "Point", "coordinates": [-122.4612995, 37.8013995]}}, {"type": "Feature", "properties": {"parcel": "face-0", "footprint_m2": 36, "points": 284, "height_m": 2.37, "flat_top": 0.92, "verdict": "vegetation/terrain (filtered)"}, "geometry": {"type": "Point", "coordinates": [-122.4597632, 37.8017317]}}, {"type": "Feature", "properties": {"parcel": "face-0", "footprint_m2": 58, "points": 496, "height_m": 1.59, "flat_top": 0.66, "verdict": "vegetation/terrain (filtered)"}, "geometry": {"type": "Point", "coordinates": [-122.4594214, 37.8019779]}}, {"type": "Feature", "properties": {"parcel": "face-0", "footprint_m2": 28, "points": 251, "height_m": 1.59, "flat_top": 0.61, "verdict": "vegetation/terrain (filtered)"}, "geometry": {"type": "Point", "coordinates": [-122.4595321, 37.8021902]}}, {"type": "Feature", "properties": {"parcel": "face-0", "footprint_m2": 39, "points": 288, "height_m": 9.13, "flat_top": 0.67, "verdict": "building"}, "geometry": {"type": "Point", "coordinates": [-122.4580319, 37.8023186]}}, {"type": "Feature", "properties": {"parcel": "61806-9|63269|61806", "footprint_m2": 175, "points": 2338, "height_m": 0.05, "flat_top": 0.96, "verdict": "vegetation/terrain (filtered)"}, "geometry": {"type": "Point", "coordinates": [-122.4627867, 37.8019387]}}, {"type": "Feature", "properties": {"parcel": "61806-9|63269|61806", "footprint_m2": 35, "points": 354, "height_m": 1.01, "flat_top": 1.0, "verdict": "vegetation/terrain (filtered)"}, "geometry": {"type": "Point", "coordinates": [-122.4615997, 37.8019293]}}, {"type": "Feature", "properties": {"parcel": "61806-9|63269|61806", "footprint_m2": 172, "points": 2241, "height_m": 0.05, "flat_top": 0.91, "verdict": "vegetation/terrain (filtered)"}, "geometry": {"type": "Point", "coordinates": [-122.4632854, 37.8020339]}}, {"type": "Feature", "properties": {"parcel": "61806-9|63269|61806", "footprint_m2": 65, "points": 805, "height_m": 0.74, "flat_top": 0.95, "verdict": "vegetation/terrain (filtered)"}, "geometry": {"type": "Point", "coordinates": [-122.4604144, 37.8022359]}}, {"type": "Feature", "properties": {"parcel": "61806-9|63269|61806", "footprint_m2": 8221, "points": 128744, "height_m": 5.28, "flat_top": 0.59, "verdict": "vegetation/terrain (filtered)"}, "geometry": {"type": "Point", "coordinates": [-122.4592688, 37.8028289]}}, {"type": "Feature", "properties": {"parcel": "61806-9|63269|61806", "footprint_m2": 410, "points": 4438, "height_m": 10.82, "flat_top": 0.24, "verdict": "vegetation/terrain (filtered)"}, "geometry": {"type": "Point", "coordinates": [-122.464752, 37.8025027]}}, {"type": "Feature", "properties": {"parcel": "61806-9|63269|61806", "footprint_m2": 21, "points": 127, "height_m": 22.04, "flat_top": 0.9, "verdict": "building"}, "geometry": {"type": "Point", "coordinates": [-122.46455, 37.8025213]}}, {"type": "Feature", "properties": {"parcel": "61806-9|63269|61806", "footprint_m2": 124, "points": 1712, "height_m": 0.3, "flat_top": 0.99, "verdict": "vegetation/terrain (filtered)"}, "geometry": {"type": "Point", "coordinates": [-122.4613737, 37.8025839]}}, {"type": "Feature", "properties": {"parcel": "61806-9|63269|61806", "footprint_m2": 58, "points": 551, "height_m": 0.64, "flat_top": 0.97, "verdict": "vegetation/terrain (filtered)"}, "geometry": {"type": "Point", "coordinates": [-122.46048, 37.8025602]}}, {"type": "Feature", "properties": {"parcel": "61806-9|63269|61806", "footprint_m2": 90, "points": 933, "height_m": 21.13, "flat_top": 0.44, "verdict": "vegetation/terrain (filtered)"}, "geometry": {"type": "Point", "coordinates": [-122.4648843, 37.8026038]}}, {"type": "Feature", "properties": {"parcel": "61806-9|63269|61806", "footprint_m2": 41, "points": 429, "height_m": 4.56, "flat_top": 0.59, "verdict": "vegetation/terrain (filtered)"}, "geometry": {"type": "Point", "coordinates": [-122.4633467, 37.8025994]}}, {"type": "Feature", "properties": {"parcel": "61806-9|63269|61806", "footprint_m2": 1999, "points": 30448, "height_m": 21.25, "flat_top": 0.4, "verdict": "vegetation/terrain (filtered)"}, "geometry": {"type": "Point", "coordinates": [-122.4657308, 37.8029317]}}, {"type": "Feature", "properties": {"parcel": "61806-9|63269|61806", "footprint_m2": 55, "points": 700, "height_m": 0.24, "flat_top": 1.0, "verdict": "vegetation/terrain (filtered)"}, "geometry": {"type": "Point", "coordinates": [-122.461159, 37.8026007]}}, {"type": "Feature", "properties": {"parcel": "61806-9|63269|61806", "footprint_m2": 980, "points": 14577, "height_m": 0.05, "flat_top": 0.39, "verdict": "vegetation/terrain (filtered)"}, "geometry": {"type": "Point", "coordinates": [-122.4626409, 37.8028296]}}, {"type": "Feature", "properties": {"parcel": "61806-9|63269|61806", "footprint_m2": 59, "points": 537, "height_m": 2.11, "flat_top": 0.25, "verdict": "vegetation/terrain (filtered)"}, "geometry": {"type": "Point", "coordinates": [-122.4649859, 37.8027484]}}, {"type": "Feature", "properties": {"parcel": "61806-9|63269|61806", "footprint_m2": 1910, "points": 30514, "height_m": 2.4, "flat_top": 0.41, "verdict": "vegetation/terrain (filtered)"}, "geometry": {"type": "Point", "coordinates": [-122.4666826, 37.8030259]}}, {"type": "Feature", "properties": {"parcel": "61806-9|63269|61806", "footprint_m2": 46, "points": 514, "height_m": 1.79, "flat_top": 0.8, "verdict": "vegetation/terrain (filtered)"}, "geometry": {"type": "Point", "coordinates": [-122.4648201, 37.8027842]}}, {"type": "Feature", "properties": {"parcel": "61806-9|63269|61806", "footprint_m2": 38, "points": 406, "height_m": 0.57, "flat_top": 1.0, "verdict": "vegetation/terrain (filtered)"}, "geometry": {"type": "Point", "coordinates": [-122.4650936, 37.8028232]}}, {"type": "Feature", "properties": {"parcel": "61806-9|63269|61806", "footprint_m2": 19, "points": 182, "height_m": 0.47, "flat_top": 1.0, "verdict": "vegetation/terrain (filtered)"}, "geometry": {"type": "Point", "coordinates": [-122.4613852, 37.8028101]}}, {"type": "Feature", "properties": {"parcel": "61806-9|63269|61806", "footprint_m2": 2275, "points": 35615, "height_m": 1.64, "flat_top": 0.61, "verdict": "vegetation/terrain (filtered)"}, "geometry": {"type": "Point", "coordinates": [-122.4638355, 37.8029829]}}, {"type": "Feature", "properties": {"parcel": "61806-9|63269|61806", "footprint_m2": 1331, "points": 21006, "height_m": 2.37, "flat_top": 0.78, "verdict": "vegetation/terrain (filtered)"}, "geometry": {"type": "Point", "coordinates": [-122.4648567, 37.8030528]}}, {"type": "Feature", "properties": {"parcel": "61806-9|63269|61806", "footprint_m2": 37, "points": 352, "height_m": 0.5, "flat_top": 1.0, "verdict": "vegetation/terrain (filtered)"}, "geometry": {"type": "Point", "coordinates": [-122.4599527, 37.8030907]}}, {"type": "Feature", "properties": {"parcel": "61806-9|63269|61806", "footprint_m2": 352, "points": 6326, "height_m": 6.19, "flat_top": 0.32, "verdict": "vegetation/terrain (filtered)"}, "geometry": {"type": "Point", "coordinates": [-122.4672052, 37.8033409]}}, {"type": "Feature", "properties": {"parcel": "61806-9|63269|61806", "footprint_m2": 156, "points": 2744, "height_m": 0.34, "flat_top": 0.72, "verdict": "vegetation/terrain (filtered)"}, "geometry": {"type": "Point", "coordinates": [-122.467832, 37.8033321]}}, {"type": "Feature", "properties": {"parcel": "61806-9|63269|61806", "footprint_m2": 39, "points": 584, "height_m": 9.62, "flat_top": 0.56, "verdict": "vegetation/terrain (filtered)"}, "geometry": {"type": "Point", "coordinates": [-122.4682613, 37.8033034]}}, {"type": "Feature", "properties": {"parcel": "face-4", "footprint_m2": 25, "points": 264, "height_m": 0.05, "flat_top": 1.0, "verdict": "vegetation/terrain (filtered)"}, "geometry": {"type": "Point", "coordinates": [-122.46048, 37.8025617]}}, {"type": "Feature", "properties": {"parcel": "face-6", "footprint_m2": 243, "points": 2699, "height_m": 3.98, "flat_top": 0.36, "verdict": "vegetation/terrain (filtered)"}, "geometry": {"type": "Point", "coordinates": [-122.4614835, 37.8016025]}}, {"type": "Feature", "properties": {"parcel": "face-6", "footprint_m2": 25, "points": 300, "height_m": 3.73, "flat_top": 0.88, "verdict": "building"}, "geometry": {"type": "Point", "coordinates": [-122.4647418, 37.8018822]}}, {"type": "Feature", "properties": {"parcel": "face-6", "footprint_m2": 16, "points": 91, "height_m": 0.84, "flat_top": 1.0, "verdict": "vegetation/terrain (filtered)"}, "geometry": {"type": "Point", "coordinates": [-122.4642502, 37.8019379]}}, {"type": "Feature", "properties": {"parcel": "face-6", "footprint_m2": 53, "points": 639, "height_m": 0.84, "flat_top": 1.0, "verdict": "vegetation/terrain (filtered)"}, "geometry": {"type": "Point", "coordinates": [-122.4644599, 37.8019704]}}, {"type": "Feature", "properties": {"parcel": "face-6", "footprint_m2": 36, "points": 372, "height_m": 9.51, "flat_top": 0.69, "verdict": "building"}, "geometry": {"type": "Point", "coordinates": [-122.4641124, 37.8020374]}}, {"type": "Feature", "properties": {"parcel": "face-7", "footprint_m2": 41, "points": 313, "height_m": 9.19, "flat_top": 0.68, "verdict": "building"}, "geometry": {"type": "Point", "coordinates": [-122.4641836, 37.8019515]}}, {"type": "Feature", "properties": {"parcel": "face-7", "footprint_m2": 10, "points": 62, "height_m": 1.71, "flat_top": 0.5, "verdict": "vegetation/terrain (filtered)"}, "geometry": {"type": "Point", "coordinates": [-122.4641767, 37.8020941]}}, {"type": "Feature", "properties": {"parcel": "61806-2", "footprint_m2": 2, "points": 22, "height_m": 4.7, "flat_top": 1.0, "verdict": "vegetation/terrain (filtered)"}, "geometry": {"type": "Point", "coordinates": [-122.4642896, 37.8019528]}}, {"type": "Feature", "properties": {"parcel": "61806-2", "footprint_m2": 76, "points": 636, "height_m": 3.75, "flat_top": 0.87, "verdict": "building"}, "geometry": {"type": "Point", "coordinates": [-122.4645763, 37.8020062]}}, {"type": "Feature", "properties": {"parcel": "61985-3|61985-2|61985-1", "footprint_m2": 1176, "points": 18315, "height_m": 6.37, "flat_top": 0.26, "verdict": "vegetation/terrain (filtered)"}, "geometry": {"type": "Point", "coordinates": [-122.4663655, 37.8011652]}}, {"type": "Feature", "properties": {"parcel": "61985-3|61985-2|61985-1", "footprint_m2": 18, "points": 104, "height_m": 9.31, "flat_top": 0.39, "verdict": "vegetation/terrain (filtered)"}, "geometry": {"type": "Point", "coordinates": [-122.4657632, 37.8010868]}}, {"type": "Feature", "properties": {"parcel": "61985-3|61985-2|61985-1", "footprint_m2": 208, "points": 3180, "height_m": 1.93, "flat_top": 0.86, "verdict": "vegetation/terrain (filtered)"}, "geometry": {"type": "Point", "coordinates": [-122.4627729, 37.8011249]}}, {"type": "Feature", "properties": {"parcel": "61985-3|61985-2|61985-1", "footprint_m2": 77, "points": 1060, "height_m": 0.66, "flat_top": 0.91, "verdict": "vegetation/terrain (filtered)"}, "geometry": {"type": "Point", "coordinates": [-122.4621875, 37.8010814]}}, {"type": "Feature", "properties": {"parcel": "61985-3|61985-2|61985-1", "footprint_m2": 23, "points": 230, "height_m": 0.23, "flat_top": 1.0, "verdict": "vegetation/terrain (filtered)"}, "geometry": {"type": "Point", "coordinates": [-122.4659594, 37.8011357]}}, {"type": "Feature", "properties": {"parcel": "61985-3|61985-2|61985-1", "footprint_m2": 457, "points": 6259, "height_m": 2.33, "flat_top": 0.63, "verdict": "vegetation/terrain (filtered)"}, "geometry": {"type": "Point", "coordinates": [-122.4631616, 37.8012816]}}, {"type": "Feature", "properties": {"parcel": "61985-3|61985-2|61985-1", "footprint_m2": 117, "points": 1545, "height_m": 0.56, "flat_top": 0.8, "verdict": "vegetation/terrain (filtered)"}, "geometry": {"type": "Point", "coordinates": [-122.4624185, 37.8012099]}}, {"type": "Feature", "properties": {"parcel": "61985-3|61985-2|61985-1", "footprint_m2": 1405, "points": 22272, "height_m": 0.29, "flat_top": 0.38, "verdict": "vegetation/terrain (filtered)"}, "geometry": {"type": "Point", "coordinates": [-122.4675476, 37.80137]}}, {"type": "Feature", "properties": {"parcel": "61985-3|61985-2|61985-1", "footprint_m2": 27, "points": 238, "height_m": 11.28, "flat_top": 1.0, "verdict": "building"}, "geometry": {"type": "Point", "coordinates": [-122.4640597, 37.8012199]}}, {"type": "Feature", "properties": {"parcel": "61985-3|61985-2|61985-1", "footprint_m2": 1434, "points": 22168, "height_m": 0.46, "flat_top": 0.37, "verdict": "vegetation/terrain (filtered)"}, "geometry": {"type": "Point", "coordinates": [-122.4663499, 37.8014683]}}, {"type": "Feature", "properties": {"parcel": "61985-3|61985-2|61985-1", "footprint_m2": 23, "points": 166, "height_m": 1.94, "flat_top": 1.0, "verdict": "vegetation/terrain (filtered)"}, "geometry": {"type": "Point", "coordinates": [-122.4659532, 37.8013573]}}, {"type": "Feature", "properties": {"parcel": "61985-3|61985-2|61985-1", "footprint_m2": 1180, "points": 18515, "height_m": 0.38, "flat_top": 0.36, "verdict": "vegetation/terrain (filtered)"}, "geometry": {"type": "Point", "coordinates": [-122.4680784, 37.8016985]}}, {"type": "Feature", "properties": {"parcel": "61985-3|61985-2|61985-1", "footprint_m2": 1349, "points": 21439, "height_m": 0.19, "flat_top": 0.38, "verdict": "vegetation/terrain (filtered)"}, "geometry": {"type": "Point", "coordinates": [-122.4675005, 37.8016373]}}, {"type": "Feature", "properties": {"parcel": "61985-3|61985-2|61985-1", "footprint_m2": 103, "points": 1403, "height_m": 0.33, "flat_top": 0.98, "verdict": "vegetation/terrain (filtered)"}, "geometry": {"type": "Point", "coordinates": [-122.465771, 37.801742]}}, {"type": "Feature", "properties": {"parcel": "face-15", "footprint_m2": 133, "points": 1951, "height_m": 0.71, "flat_top": 0.41, "verdict": "vegetation/terrain (filtered)"}, "geometry": {"type": "Point", "coordinates": [-122.4605886, 37.8010842]}}, {"type": "Feature", "properties": {"parcel": "face-15", "footprint_m2": 225, "points": 3030, "height_m": 2.06, "flat_top": 0.57, "verdict": "vegetation/terrain (filtered)"}, "geometry": {"type": "Point", "coordinates": [-122.4590697, 37.8010861]}}, {"type": "Feature", "properties": {"parcel": "face-15", "footprint_m2": 161, "points": 1879, "height_m": 0.12, "flat_top": 0.99, "verdict": "vegetation/terrain (filtered)"}, "geometry": {"type": "Point", "coordinates": [-122.4601126, 37.8011342]}}, {"type": "Feature", "properties": {"parcel": "face-15", "footprint_m2": 1786, "points": 26502, "height_m": 6.45, "flat_top": 0.29, "verdict": "vegetation/terrain (filtered)"}, "geometry": {"type": "Point", "coordinates": [-122.4587038, 37.8013722]}}, {"type": "Feature", "properties": {"parcel": "face-15", "footprint_m2": 746, "points": 11243, "height_m": 2.42, "flat_top": 0.37, "verdict": "vegetation/terrain (filtered)"}, "geometry": {"type": "Point", "coordinates": [-122.4599125, 37.8012971]}}, {"type": "Feature", "properties": {"parcel": "face-15", "footprint_m2": 266, "points": 3130, "height_m": 15.11, "flat_top": 0.31, "verdict": "vegetation/terrain (filtered)"}, "geometry": {"type": "Point", "coordinates": [-122.4604156, 37.8012695]}}, {"type": "Feature", "properties": {"parcel": "face-15", "footprint_m2": 28, "points": 180, "height_m": 6.51, "flat_top": 0.86, "verdict": "building"}, "geometry": {"type": "Point", "coordinates": [-122.4596156, 37.801354]}}, {"type": "Feature", "properties": {"parcel": "face-15", "footprint_m2": 140, "points": 1514, "height_m": 6.12, "flat_top": 0.61, "verdict": "building"}, "geometry": {"type": "Point", "coordinates": [-122.459604, 37.8015679]}}, {"type": "Feature", "properties": {"parcel": "face-15", "footprint_m2": 26, "points": 265, "height_m": 0.62, "flat_top": 1.0, "verdict": "vegetation/terrain (filtered)"}, "geometry": {"type": "Point", "coordinates": [-122.4593291, 37.801528]}}, {"type": "Feature", "properties": {"parcel": "face-15", "footprint_m2": 503, "points": 6757, "height_m": 0.04, "flat_top": 0.65, "verdict": "vegetation/terrain (filtered)"}, "geometry": {"type": "Point", "coordinates": [-122.4590167, 37.8017009]}}, {"type": "Feature", "properties": {"parcel": "face-15", "footprint_m2": 1511, "points": 22998, "height_m": 4.69, "flat_top": 0.41, "verdict": "vegetation/terrain (filtered)"}, "geometry": {"type": "Point", "coordinates": [-122.4583233, 37.8018326]}}, {"type": "Feature", "properties": {"parcel": "face-15", "footprint_m2": 39, "points": 353, "height_m": 2.89, "flat_top": 0.33, "verdict": "vegetation/terrain (filtered)"}, "geometry": {"type": "Point", "coordinates": [-122.459364, 37.8016652]}}, {"type": "Feature", "properties": {"parcel": "face-15", "footprint_m2": 6, "points": 12, "height_m": 0.8, "flat_top": 1.0, "verdict": "vegetation/terrain (filtered)"}, "geometry": {"type": "Point", "coordinates": [-122.4597418, 37.8017303]}}, {"type": "Feature", "properties": {"parcel": "face-15", "footprint_m2": 6, "points": 24, "height_m": 4.87, "flat_top": 0.0, "verdict": "vegetation/terrain (filtered)"}, "geometry": {"type": "Point", "coordinates": [-122.4596948, 37.801732]}}, {"type": "Feature", "properties": {"parcel": "face-15", "footprint_m2": 300, "points": 4502, "height_m": 1.38, "flat_top": 0.63, "verdict": "vegetation/terrain (filtered)"}, "geometry": {"type": "Point", "coordinates": [-122.4580072, 37.8021398]}}, {"type": "Feature", "properties": {"parcel": "face-18", "footprint_m2": 6, "points": 58, "height_m": 1.41, "flat_top": 0.83, "verdict": "vegetation/terrain (filtered)"}, "geometry": {"type": "Point", "coordinates": [-122.4648044, 37.8018692]}}, {"type": "Feature", "properties": {"parcel": "face-18", "footprint_m2": 70, "points": 712, "height_m": 1.44, "flat_top": 0.54, "verdict": "vegetation/terrain (filtered)"}, "geometry": {"type": "Point", "coordinates": [-122.4646919, 37.8019878]}}, {"type": "Feature", "properties": {"parcel": "face-20", "footprint_m2": 321, "points": 4611, "height_m": 0.08, "flat_top": 0.61, "verdict": "vegetation/terrain (filtered)"}, "geometry": {"type": "Point", "coordinates": [-122.4658136, 37.803086]}}, {"type": "Feature", "properties": {"parcel": "face-23", "footprint_m2": 105, "points": 1421, "height_m": 3.3, "flat_top": 0.27, "verdict": "vegetation/terrain (filtered)"}, "geometry": {"type": "Point", "coordinates": [-122.4586551, 37.8012263]}}]}