{"type": "FeatureCollection", "features": [{"type": "Feature", "properties": {"parcel": "", "area_sqft": 1151.2, "area_acres": 0.026, "labels_inside": 0}, "geometry": {"type": "Polygon", "coordinates": [[[-122.45860276, 37.80254216], [-122.45851113, 37.80256912], [-122.45868588, 37.80275655], [-122.45860276, 37.80254216]]]}}, {"type": "Feature", "properties": {"parcel": "61806-9|63269|61806", "area_sqft": 1825813.5, "area_acres": 41.915, "labels_inside": 3}, "geometry": {"type": "Polygon", "coordinates": [[[-122.45967918, 37.80230534], [-122.45963744, 37.80231491], [-122.45957213, 37.80230481], [-122.45955076, 37.80225907], [-122.45962381, 37.80223762], [-122.45961054, 37.80220749], [-122.45991545, 37.8021181], [-122.45973486, 37.80197188], [-122.45992139, 37.80211635], [-122.46010565, 37.80206233], [-122.46018015, 37.80204085], [-122.46025526, 37.8020205], [-122.46033069, 37.80200082], [-122.46040643, 37.80198183], [-122.46048251, 37.80196397], [-122.4605589, 37.8019468], [-122.46063562, 37.80193075], [-122.46071237, 37.8019154], [-122.46078973, 37.80190095], [-122.46086828, 37.80188738], [-122.46094685, 37.8018745], [-122.46102575, 37.80186276], [-122.46110498, 37.80185192], [-122.46118426, 37.80184223], [-122.46126384, 37.80183322], [-122.46134347, 37.80182535], [-122.46134693, 37.80182505], [-122.46134602, 37.80182414], [-122.4613448, 37.80182234], [-122.46134357, 37.80182031], [-122.46134263, 37.80181827], [-122.46134226, 37.80181622], [-122.46134217, 37.80181393], [-122.46134237, 37.80181164], [-122.46134315, 37.80180933], [-122.46134392, 37.80180679], [-122.46134498, 37.80180448], [-122.46134633, 37.80180193], [-122.46134932, 37.80179705], [-122.46135038, 37.80179473], [-122.46135175, 37.80179264], [-122.46135282, 37.80179055], [-122.46135333, 37.80178871], [-122.46135383, 37.80178686], [-122.46135377, 37.80178526], [-122.46135375, 37.80178458], [-122.46135344, 37.80178413], [-122.46135284, 37.80178345], [-122.46135224, 37.80178301], [-122.46135165, 37.80178257], [-122.46135077, 37.80178213], [-122.46134873, 37.80178172], [-122.46134612, 37.80178133], [-122.46134352, 37.80178116], [-122.46134034, 37.80178101], [-122.46133688, 37.80178109], [-122.46132996, 37.80178126], [-122.46136942, 37.80177805], [-122.46135623, 37.80167599], [-122.46133401, 37.80167584], [-122.461308, 37.80142173], [-122.46127072, 37.80142413], [-122.46128044, 37.80142183], [-122.46128987, 37.80141932], [-122.46129444, 37.80141806], [-122.461299, 37.80141658], [-122.46130326, 37.80141487], [-122.46130714, 37.80141332], [-122.46130483, 37.80139069], [-122.46125257, 37.8013948], [-122.46117321, 37.80140197], [-122.46109387, 37.80141006], [-122.46101486, 37.80141906], [-122.46093589, 37.80142898], [-122.46085733, 37.80143978], [-122.46086211, 37.80146166], [-122.46084583, 37.80145233], [-122.46085724, 37.8014398], [-122.46070585, 37.80135048], [-122.46092821, 37.80130796], [-122.46128789, 37.80123917], [-122.46129437, 37.801296], [-122.46130178, 37.80136087], [-122.46137787, 37.80135913], [-122.46143177, 37.80135789], [-122.46143107, 37.80133876], [-122.46140266, 37.80125221], [-122.46141965, 37.80124723], [-122.4614707, 37.80135699], [-122.46152376, 37.80135577], [-122.46152341, 37.80134638], [-122.46153078, 37.80134277], [-122.46153844, 37.80133938], [-122.46154241, 37.80133768], [-122.4615464, 37.80133621], [-122.46155039, 37.80133497], [-122.46155467, 37.80133373], [-122.46155925, 37.8013327], [-122.46156384, 37.8013319], [-122.46156872, 37.80133133], [-122.46157332, 37.80133099], [-122.4615831, 37.80133007], [-122.4615877, 37.80132973], [-122.46159201, 37.80132916], [-122.46159631, 37.80132837], [-122.46160003, 37.8013276], [-122.46160174, 37.8013271], [-122.46160345, 37.8013266], [-122.46160516, 37.80132587], [-122.46160657, 37.80132515], [-122.46160769, 37.80132421], [-122.4616091, 37.80132326], [-122.46160993, 37.80132232], [-122.46161104, 37.80132138], [-122.46161187, 37.80132022], [-122.46161269, 37.80131905], [-122.46161374, 37.80131651], [-122.46161478, 37.80131351], [-122.46161525, 37.80131052], [-122.46161541, 37.80130731], [-122.46161534, 37.80130533], [-122.46161095, 37.80130319], [-122.46159067, 37.80129243], [-122.46157094, 37.80128106], [-122.4615518, 37.8012691], [-122.46153325, 37.80125658], [-122.46151532, 37.80124349], [-122.46149803, 37.80122985], [-122.4614814, 37.80121569], [-122.46146545, 37.801201], [-122.46145021, 37.80118581], [-122.46145032, 37.80118558], [-122.46246249, 37.80009236], [-122.46131179, 37.80012004], [-122.46131349, 37.8001645], [-122.4613158, 37.80022489], [-122.46131811, 37.80028551], [-122.46132042, 37.8003459], [-122.46132273, 37.80040629], [-122.46132503, 37.80046668], [-122.46132735, 37.8005273], [-122.46056396, 37.80054566], [-122.46056164, 37.80048504], [-122.46055933, 37.80042465], [-122.46055703, 37.80036426], [-122.46055472, 37.80030387], [-122.4605524, 37.80024325], [-122.4605501, 37.80018286], [-122.4605484, 37.80013841], [-122.46034833, 37.80014322], [-122.4603494, 37.8001712], [-122.46035154, 37.80022747], [-122.46035369, 37.80028352], [-122.46035583, 37.80033979], [-122.46035798, 37.80039606], [-122.46036029, 37.80045645], [-122.4603626, 37.80051684], [-122.4603649, 37.80057723], [-122.46036722, 37.80063785], [-122.46036953, 37.80069824], [-122.46037183, 37.80075863], [-122.46037414, 37.80081902], [-122.45961074, 37.80083738], [-122.45960844, 37.80077699], [-122.45960613, 37.8007166], [-122.45960382, 37.80065621], [-122.45960151, 37.80059559], [-122.4595992, 37.8005352], [-122.4595969, 37.80047481], [-122.45959459, 37.80041442], [-122.45959244, 37.80035815], [-122.45959029, 37.80030187], [-122.45958815, 37.80024583], [-122.459586, 37.80018956], [-122.45958494, 37.80016157], [-122.45938285, 37.80016643], [-122.45938451, 37.80020997], [-122.45938681, 37.80027036], [-122.45938912, 37.80033075], [-122.45939142, 37.80039114], [-122.45939373, 37.80045153], [-122.45939605, 37.80051215], [-122.45939835, 37.80057254], [-122.45940066, 37.80063293], [-122.45940296, 37.80069332], [-122.45940528, 37.80075394], [-122.45940758, 37.80081433], [-122.45891605, 37.80082615], [-122.45891374, 37.80076576], [-122.45891143, 37.80070514], [-122.45890912, 37.80064475], [-122.45890682, 37.80058436], [-122.45890451, 37.80052397], [-122.4589022, 37.80046335], [-122.45889989, 37.80040296], [-122.45889759, 37.80034257], [-122.45889528, 37.80028218], [-122.45889297, 37.80022178], [-122.45889131, 37.80017825], [-122.4586996, 37.80018285], [-122.4587008, 37.80021427], [-122.45870289, 37.80026894], [-122.45870496, 37.80032338], [-122.45870705, 37.80037805], [-122.45870913, 37.8004325], [-122.45871121, 37.80048694], [-122.45871329, 37.80054161], [-122.45871537, 37.80059605], [-122.45871746, 37.80065073], [-122.45871954, 37.80070517], [-122.45872162, 37.80075984], [-122.4587237, 37.80081428], [-122.45872579, 37.80086896], [-122.45872787, 37.8009234], [-122.45872995, 37.80097807], [-122.45873203, 37.80103251], [-122.45873411, 37.80108696], [-122.4587362, 37.80114163], [-122.45873828, 37.80119607], [-122.45874036, 37.80125074], [-122.45807988, 37.80126661], [-122.4580778, 37.80121194], [-122.45807572, 37.8011575], [-122.45807363, 37.80110283], [-122.45807155, 37.80104838], [-122.45806948, 37.80099394], [-122.45806739, 37.80093927], [-122.45806531, 37.80088483], [-122.45806323, 37.80083016], [-122.45806115, 37.80077571], [-122.45805906, 37.80072104], [-122.45805698, 37.8006666], [-122.4580549, 37.80061193], [-122.45805282, 37.80055748], [-122.45805073, 37.80050281], [-122.45804865, 37.80044837], [-122.45804658, 37.80039393], [-122.45804449, 37.80033925], [-122.45804241, 37.80028481], [-122.45804033, 37.80023014], [-122.45803913, 37.80019873], [-122.45763283, 37.80020849], [-122.45776144, 37.80357876], [-122.45886055, 37.80355235], [-122.4588582, 37.80349081], [-122.45885573, 37.80342608], [-122.45885325, 37.80336134], [-122.45885078, 37.8032966], [-122.45884831, 37.80323187], [-122.45884584, 37.80316713], [-122.45884337, 37.80310239], [-122.45884107, 37.80304223], [-122.45883877, 37.80298184], [-122.45915792, 37.80297417], [-122.45945717, 37.80296698], [-122.45965667, 37.80296218], [-122.45965898, 37.80302257], [-122.45966128, 37.80308273], [-122.45966375, 37.80314747], [-122.45966622, 37.80321221], [-122.45966869, 37.80327694], [-122.45967117, 37.80334168], [-122.45967364, 37.80340642], [-122.45967611, 37.80347115], [-122.45967846, 37.80353269], [-122.46087809, 37.80350384], [-122.46372046, 37.80343544], [-122.4637186, 37.80338695], [-122.46371664, 37.80333571], [-122.46371468, 37.80328424], [-122.46371272, 37.803233], [-122.46371075, 37.80318153], [-122.46370879, 37.80313029], [-122.46370682, 37.80307882], [-122.46370486, 37.80302758], [-122.4637029, 37.80297634], [-122.46403473, 37.80296835], [-122.46439886, 37.80295958], [-122.46483794, 37.80294901], [-122.46495902, 37.80294609], [-122.46496098, 37.80299733], [-122.46496294, 37.80304857], [-122.46496491, 37.80310004], [-122.46496687, 37.80315128], [-122.46496884, 37.80320275], [-122.4649708, 37.80325399], [-122.46497277, 37.80330546], [-122.46497473, 37.8033567], [-122.46497659, 37.8034052], [-122.46828802, 37.80332539], [-122.46828817, 37.80332539], [-122.46828134, 37.80312142], [-122.46827922, 37.80305818], [-122.46828676, 37.80304192], [-122.46823619, 37.80302716], [-122.4681297, 37.80299676], [-122.46810388, 37.80305347], [-122.46804577, 37.80308025], [-122.46799953, 37.80310155], [-122.46763503, 37.80298644], [-122.4676344, 37.80298624], [-122.46755496, 37.80296116], [-122.46757678, 37.80285279], [-122.46697213, 37.80270686], [-122.46675132, 37.8026616], [-122.46621179, 37.80307687], [-122.46617805, 37.80307769], [-122.46631843, 37.80261363], [-122.46621838, 37.80304825], [-122.46674872, 37.80266107], [-122.46528014, 37.80236005], [-122.46441172, 37.80218203], [-122.46404081, 37.8026708], [-122.46460128, 37.80226164], [-122.46400029, 37.80272419], [-122.46396656, 37.802725], [-122.46440885, 37.80218144], [-122.46422248, 37.80214324], [-122.46416482, 37.80223225], [-122.46415914, 37.80222993], [-122.46408753, 37.80211557], [-122.46406816, 37.80211444], [-122.46333057, 37.80196299], [-122.46325729, 37.80194827], [-122.46320702, 37.80193884], [-122.46318376, 37.80193447], [-122.46310968, 37.8019216], [-122.46303564, 37.80190964], [-122.46296164, 37.8018986], [-122.46288708, 37.80188826], [-122.46281227, 37.80187884], [-122.46273751, 37.80187057], [-122.46266276, 37.80186275], [-122.46258748, 37.80185609], [-122.46251223, 37.80185035], [-122.46243702, 37.80184529], [-122.46236155, 37.80184138], [-122.46228611, 37.80183816], [-122.46221071, 37.80183585], [-122.46213506, 37.80183447], [-122.46205943, 37.801834], [-122.46198385, 37.80183444], [-122.46190829, 37.80183557], [-122.46183277, 37.80183785], [-122.46175728, 37.80184081], [-122.46168213, 37.80184491], [-122.46161049, 37.80184946], [-122.46160671, 37.8018497], [-122.46153941, 37.80185479], [-122.46153939, 37.80185479], [-122.46153132, 37.8018554], [-122.46146614, 37.80186115], [-122.46146167, 37.80186154], [-122.46145626, 37.80186202], [-122.46138123, 37.80186955], [-122.46135997, 37.80187189], [-122.4611683, 37.80189276], [-122.46109224, 37.80197152], [-122.46104514, 37.80199598], [-122.46094709, 37.8020469], [-122.46087956, 37.80205448], [-122.46081236, 37.80206274], [-122.46074519, 37.80207214], [-122.46067834, 37.80208222], [-122.46061154, 37.80209344], [-122.46054505, 37.80210557], [-122.46047888, 37.80211838], [-122.46041305, 37.80213233], [-122.46034754, 37.80214718], [-122.46028205, 37.80216272], [-122.46021718, 37.80217939], [-122.46015263, 37.80219675], [-122.4600543, 37.8022193], [-122.46053524, 37.8025918], [-122.46050162, 37.8025927], [-122.4600435, 37.80222178], [-122.45967918, 37.80230534]]]}}, {"type": "Feature", "properties": {"parcel": "", "area_sqft": 4441.8, "area_acres": 0.102, "labels_inside": 0}, "geometry": {"type": "Polygon", "coordinates": [[[-122.45967918, 37.80230534], [-122.4600435, 37.80222178], [-122.45991545, 37.8021181], [-122.45961054, 37.80220749], [-122.45967918, 37.80230534]]]}}, {"type": "Feature", "properties": {"parcel": "", "area_sqft": 951.9, "area_acres": 0.022, "labels_inside": 0}, "geometry": {"type": "Polygon", "coordinates": [[[-122.4600543, 37.8022193], [-122.4600435, 37.80222178], [-122.46050162, 37.8025927], [-122.46053524, 37.8025918], [-122.4600543, 37.8022193]]]}}, {"type": "Feature", "properties": {"parcel": "", "area_sqft": 19593.2, "area_acres": 0.45, "labels_inside": 0}, "geometry": {"type": "Polygon", "coordinates": [[[-122.4600543, 37.8022193], [-122.46015263, 37.80219675], [-122.46021718, 37.80217939], [-122.46028205, 37.80216272], [-122.46034754, 37.80214718], [-122.46041305, 37.80213233], [-122.46047888, 37.80211838], [-122.46054505, 37.80210557], [-122.46061154, 37.80209344], [-122.46067834, 37.80208222], [-122.46074519, 37.80207214], [-122.46081236, 37.80206274], [-122.46087956, 37.80205448], [-122.46094709, 37.8020469], [-122.46104514, 37.80199598], [-122.46109224, 37.80197152], [-122.4611683, 37.80189276], [-122.46135997, 37.80187189], [-122.46138123, 37.80186955], [-122.46137517, 37.80182259], [-122.46135258, 37.80182456], [-122.46135351, 37.80183129], [-122.46134962, 37.80182772], [-122.46134782, 37.80182593], [-122.46134693, 37.80182505], [-122.46134347, 37.80182535], [-122.46126384, 37.80183322], [-122.46118426, 37.80184223], [-122.46110498, 37.80185192], [-122.46102575, 37.80186276], [-122.46094685, 37.8018745], [-122.46086828, 37.80188738], [-122.46078973, 37.80190095], [-122.46071237, 37.8019154], [-122.46063562, 37.80193075], [-122.4605589, 37.8019468], [-122.46048251, 37.80196397], [-122.46040643, 37.80198183], [-122.46033069, 37.80200082], [-122.46025526, 37.8020205], [-122.46018015, 37.80204085], [-122.46010565, 37.80206233], [-122.45992139, 37.80211635], [-122.4600543, 37.8022193]]]}}, {"type": "Feature", "properties": {"parcel": "61985-2", "area_sqft": 135166.5, "area_acres": 3.103, "labels_inside": 1, "table_area_sqft": 15372, "diff_pct": 779.3}, "geometry": {"type": "Polygon", "coordinates": [[[-122.46161049, 37.80184946], [-122.46168213, 37.80184491], [-122.46175728, 37.80184081], [-122.46183277, 37.80183785], [-122.46190829, 37.80183557], [-122.46198385, 37.80183444], [-122.46205943, 37.801834], [-122.46213506, 37.80183447], [-122.46221071, 37.80183585], [-122.46228611, 37.80183816], [-122.46236155, 37.80184138], [-122.46243702, 37.80184529], [-122.46251223, 37.80185035], [-122.46258748, 37.80185609], [-122.46266276, 37.80186275], [-122.46273751, 37.80187057], [-122.46281227, 37.80187884], [-122.46288708, 37.80188826], [-122.46296164, 37.8018986], [-122.46303564, 37.80190964], [-122.46310968, 37.8019216], [-122.46318376, 37.80193447], [-122.46320702, 37.80193884], [-122.46325729, 37.80194827], [-122.46333057, 37.80196299], [-122.46406816, 37.80211444], [-122.46408753, 37.80211557], [-122.46413873, 37.80212607], [-122.46414776, 37.80209832], [-122.46415197, 37.80209525], [-122.46415394, 37.80209382], [-122.46415561, 37.80209218], [-122.46415699, 37.80209055], [-122.46415778, 37.80208869], [-122.46415857, 37.80208684], [-122.46415878, 37.80208478], [-122.4641587, 37.80208249], [-122.46415861, 37.8020802], [-122.46415795, 37.80207793], [-122.46415757, 37.80207565], [-122.46415594, 37.80207088], [-122.4641549, 37.80206633], [-122.46415425, 37.80206428], [-122.46415388, 37.80206223], [-122.4641541, 37.80206039], [-122.46415433, 37.80205878], [-122.46415484, 37.80205717], [-122.46415594, 37.80205577], [-122.46415735, 37.80205482], [-122.46415904, 37.80205386], [-122.46416104, 37.80205313], [-122.46416361, 37.80205238], [-122.46416619, 37.80205209], [-122.46416906, 37.80205156], [-122.46417222, 37.80205126], [-122.46417539, 37.80205118], [-122.46418172, 37.8020508], [-122.46418743, 37.80201883], [-122.46408749, 37.80195599], [-122.46408009, 37.80192091], [-122.46408317, 37.80191099], [-122.46428222, 37.8019477], [-122.46428224, 37.80194763], [-122.46458826, 37.80200413], [-122.46460795, 37.80194549], [-122.46461701, 37.80191851], [-122.46479466, 37.80190809], [-122.46479171, 37.80187652], [-122.46475756, 37.80181933], [-122.46475194, 37.80180994], [-122.4644281, 37.80174767], [-122.46442799, 37.80174729], [-122.46442785, 37.80174731], [-122.46442799, 37.80174776], [-122.46440285, 37.80175228], [-122.46440289, 37.8017524], [-122.46440254, 37.80175233], [-122.46438985, 37.80175461], [-122.4643857, 37.80175541], [-122.46438477, 37.80175553], [-122.46438353, 37.80175575], [-122.46433873, 37.80176171], [-122.46432811, 37.80176264], [-122.46432185, 37.80176343], [-122.46431286, 37.80176397], [-122.4642937, 37.80176565], [-122.46426609, 37.80176682], [-122.46425744, 37.80176734], [-122.46425393, 37.80176733], [-122.46424856, 37.80176756], [-122.4642034, 37.80176745], [-122.46419698, 37.80176715], [-122.46419279, 37.80176714], [-122.46418372, 37.80176653], [-122.46415833, 37.80176534], [-122.46413751, 37.80176342], [-122.4641352, 37.80176327], [-122.46412823, 37.8017628], [-122.46412258, 37.80176205], [-122.46411348, 37.80176121], [-122.46406893, 37.80175508], [-122.46406614, 37.80175457], [-122.46406407, 37.8017543], [-122.4640573, 37.80175294], [-122.4640248, 37.80174696], [-122.46400888, 37.80174326], [-122.46400063, 37.80174162], [-122.46399374, 37.80173975], [-122.46398121, 37.80173684], [-122.46393824, 37.80172474], [-122.46393831, 37.80172463], [-122.46339442, 37.80155757], [-122.4633741, 37.80155128], [-122.4633223, 37.80153526], [-122.46315395, 37.80150295], [-122.46285167, 37.80144493], [-122.46265076, 37.80141142], [-122.46264915, 37.8014114], [-122.46264896, 37.8014114], [-122.46264856, 37.8014114], [-122.46264148, 37.80141146], [-122.4626344, 37.80141154], [-122.46262732, 37.80141166], [-122.46262025, 37.8014118], [-122.46261317, 37.80141198], [-122.46260609, 37.80141218], [-122.46259902, 37.80141241], [-122.46259194, 37.80141267], [-122.46258487, 37.80141296], [-122.4625778, 37.80141327], [-122.46257073, 37.80141362], [-122.46257076, 37.80141347], [-122.46253572, 37.80141544], [-122.46232105, 37.80143091], [-122.46232102, 37.80143096], [-122.46232072, 37.80143086], [-122.46226859, 37.80143367], [-122.46226682, 37.8014337], [-122.46226516, 37.80143379], [-122.46224888, 37.80143404], [-122.46221647, 37.80143465], [-122.46221293, 37.80143459], [-122.46220963, 37.80143464], [-122.4621915, 37.80143425], [-122.46216443, 37.80143382], [-122.46215913, 37.80143355], [-122.46215422, 37.80143344], [-122.46213633, 37.80143239], [-122.46211255, 37.80143118], [-122.4621055, 37.80143058], [-122.46209901, 37.80143019], [-122.46208206, 37.80142856], [-122.4620609, 37.80142675], [-122.46205213, 37.80142568], [-122.46204409, 37.80142491], [-122.46202841, 37.80142281], [-122.46200956, 37.80142052], [-122.46199908, 37.80141888], [-122.46198956, 37.8014176], [-122.4619753, 37.80141514], [-122.4619586, 37.80141252], [-122.46194644, 37.80141017], [-122.4619355, 37.80140829], [-122.4619231, 37.80140566], [-122.4619291, 37.80142033], [-122.46190221, 37.80142725], [-122.46176629, 37.80136558], [-122.46176122, 37.80136328], [-122.46176004, 37.80136291], [-122.46176011, 37.8013628], [-122.46174538, 37.80135774], [-122.46172581, 37.80135115], [-122.46172575, 37.80135113], [-122.46165419, 37.80135278], [-122.4616541, 37.80135278], [-122.46152376, 37.80135577], [-122.4614707, 37.80135699], [-122.46147073, 37.80135704], [-122.46147048, 37.80135723], [-122.46149099, 37.801379], [-122.46149147, 37.80137898], [-122.46149115, 37.80137917], [-122.46149384, 37.80138203], [-122.4615151, 37.80140782], [-122.46153422, 37.80143452], [-122.46155117, 37.80146206], [-122.46155968, 37.80147838], [-122.46153055, 37.80148794], [-122.46147507, 37.80141028], [-122.46146424, 37.80138693], [-122.46133766, 37.80142389], [-122.46131723, 37.80140726], [-122.46131515, 37.80140886], [-122.46131148, 37.80141101], [-122.46130753, 37.80141317], [-122.46130714, 37.80141332], [-122.461308, 37.80142173], [-122.46133401, 37.80167584], [-122.46135623, 37.80167599], [-122.46136942, 37.80177805], [-122.46137517, 37.80182259], [-122.46142343, 37.80181839], [-122.46144509, 37.80181675], [-122.46145161, 37.80181626], [-122.46150342, 37.80181234], [-122.46158345, 37.80180744], [-122.46161049, 37.80184946]]]}}, {"type": "Feature", "properties": {"parcel": "", "area_sqft": 2291.2, "area_acres": 0.053, "labels_inside": 0}, "geometry": {"type": "Polygon", "coordinates": [[[-122.46413873, 37.80212607], [-122.46418378, 37.8021353], [-122.46419224, 37.80210932], [-122.46419841, 37.80210693], [-122.46420474, 37.80210491], [-122.4642112, 37.80210326], [-122.46421778, 37.80210197], [-122.46422444, 37.80210104], [-122.46423117, 37.80210049], [-122.46423558, 37.80210037], [-122.46423634, 37.80209788], [-122.46428222, 37.8019477], [-122.46408317, 37.80191099], [-122.46408009, 37.80192091], [-122.46408749, 37.80195599], [-122.46418743, 37.80201883], [-122.46418172, 37.8020508], [-122.46417539, 37.80205118], [-122.46417222, 37.80205126], [-122.46416906, 37.80205156], [-122.46416619, 37.80205209], [-122.46416361, 37.80205238], [-122.46416104, 37.80205313], [-122.46415904, 37.80205386], [-122.46415735, 37.80205482], [-122.46415594, 37.80205577], [-122.46415484, 37.80205717], [-122.46415433, 37.80205878], [-122.4641541, 37.80206039], [-122.46415388, 37.80206223], [-122.46415425, 37.80206428], [-122.4641549, 37.80206633], [-122.46415594, 37.80207088], [-122.46415757, 37.80207565], [-122.46415795, 37.80207793], [-122.46415861, 37.8020802], [-122.4641587, 37.80208249], [-122.46415878, 37.80208478], [-122.46415857, 37.80208684], [-122.46415778, 37.80208869], [-122.46415699, 37.80209055], [-122.46415561, 37.80209218], [-122.46415394, 37.80209382], [-122.46415197, 37.80209525], [-122.46414776, 37.80209832], [-122.46413873, 37.80212607]]]}}, {"type": "Feature", "properties": {"parcel": "61806-2", "area_sqft": 193676.3, "area_acres": 4.446, "labels_inside": 1, "table_area_sqft": 314067.6, "diff_pct": -38.33}, "geometry": {"type": "Polygon", "coordinates": [[[-122.46422248, 37.80214324], [-122.46440885, 37.80218144], [-122.46445797, 37.80212108], [-122.46441172, 37.80218203], [-122.46528014, 37.80236005], [-122.46674872, 37.80266107], [-122.46681276, 37.80261431], [-122.46675132, 37.8026616], [-122.46697213, 37.80270686], [-122.46757678, 37.80285279], [-122.4681297, 37.80299676], [-122.46807548, 37.80288302], [-122.46809169, 37.80287815], [-122.46814475, 37.80289244], [-122.46816167, 37.80289707], [-122.46818371, 37.80290326], [-122.46819696, 37.80290698], [-122.46821505, 37.80291204], [-122.46826784, 37.8029268], [-122.46827076, 37.80292764], [-122.46831599, 37.80294075], [-122.46831628, 37.80294074], [-122.46831285, 37.8028513], [-122.46827249, 37.80285227], [-122.46826576, 37.80264637], [-122.46830497, 37.80264542], [-122.46829708, 37.80243955], [-122.46825903, 37.80244046], [-122.46825644, 37.80236125], [-122.46825398, 37.80236137], [-122.46822254, 37.8023619], [-122.46819135, 37.80236127], [-122.46816636, 37.80236023], [-122.46816014, 37.80235997], [-122.46812889, 37.80235774], [-122.46809789, 37.8023546], [-122.4671567, 37.80224426], [-122.46616974, 37.80209152], [-122.46568447, 37.8019984], [-122.46564184, 37.80199021], [-122.4656562, 37.80194316], [-122.46555321, 37.80192337], [-122.46553792, 37.80193639], [-122.46554252, 37.80192132], [-122.46495532, 37.80180847], [-122.46494632, 37.80183708], [-122.4649396, 37.80185839], [-122.46487683, 37.80205741], [-122.46458826, 37.80200413], [-122.46458825, 37.80200414], [-122.46428222, 37.8019477], [-122.46423634, 37.80209788], [-122.46425716, 37.80210189], [-122.46425145, 37.80210108], [-122.46424469, 37.80210051], [-122.46423792, 37.80210031], [-122.46423558, 37.80210037], [-122.46422248, 37.80214323], [-122.46422248, 37.80214324]]]}}, {"type": "Feature", "properties": {"parcel": "", "area_sqft": 946.9, "area_acres": 0.022, "labels_inside": 0}, "geometry": {"type": "Polygon", "coordinates": [[[-122.46441172, 37.80218203], [-122.46440885, 37.80218144], [-122.46396656, 37.802725], [-122.46404081, 37.8026708], [-122.46441172, 37.80218203]]]}}, {"type": "Feature", "properties": {"parcel": "", "area_sqft": 6974.5, "area_acres": 0.16, "labels_inside": 0}, "geometry": {"type": "Polygon", "coordinates": [[[-122.46757678, 37.80285279], [-122.46755496, 37.80296116], [-122.4676344, 37.80298624], [-122.4676395, 37.80297606], [-122.46763503, 37.80298644], [-122.46799953, 37.80310155], [-122.46804577, 37.80308025], [-122.46810388, 37.80305347], [-122.4681297, 37.80299676], [-122.46757678, 37.80285279]]]}}, {"type": "Feature", "properties": {"parcel": "", "area_sqft": 2494.8, "area_acres": 0.057, "labels_inside": 0}, "geometry": {"type": "Polygon", "coordinates": [[[-122.4681297, 37.80299676], [-122.46823619, 37.80302716], [-122.46828676, 37.80304192], [-122.46832024, 37.80305169], [-122.46832053, 37.80305168], [-122.46831628, 37.80294074], [-122.46831599, 37.80294075], [-122.46827076, 37.80292764], [-122.46826784, 37.8029268], [-122.46821505, 37.80291204], [-122.46819696, 37.80290698], [-122.46818371, 37.80290326], [-122.46816167, 37.80289707], [-122.46814475, 37.80289244], [-122.46809169, 37.80287815], [-122.46807548, 37.80288302], [-122.4681297, 37.80299676]]]}}, {"type": "Feature", "properties": {"parcel": "61985-4", "area_sqft": 1223598.6, "area_acres": 28.09, "labels_inside": 1, "table_area_sqft": 3248, "diff_pct": 37572.37}, "geometry": {"type": "Polygon", "coordinates": [[[-122.4647905, 37.80180695], [-122.46494632, 37.80183708], [-122.46495532, 37.80180847], [-122.46554252, 37.80192132], [-122.46555321, 37.80192337], [-122.4656562, 37.80194316], [-122.46564184, 37.80199021], [-122.46568447, 37.8019984], [-122.46616974, 37.80209152], [-122.4671567, 37.80224426], [-122.46809789, 37.8023546], [-122.46812889, 37.80235774], [-122.46816014, 37.80235997], [-122.46816636, 37.80236023], [-122.46819135, 37.80236127], [-122.46822254, 37.8023619], [-122.46825398, 37.80236137], [-122.46825644, 37.80236125], [-122.46825281, 37.80225045], [-122.46825229, 37.80223456], [-122.4682892, 37.80223367], [-122.46828131, 37.8020278], [-122.46824527, 37.80202867], [-122.4682448, 37.80201412], [-122.46823711, 37.80177779], [-122.46823553, 37.80172896], [-122.46826983, 37.80172813], [-122.46825308, 37.80129076], [-122.46822041, 37.80043775], [-122.46821067, 37.80018338], [-122.46820188, 37.7999541], [-122.46246249, 37.80009236], [-122.46145032, 37.80118558], [-122.46145021, 37.80118581], [-122.46146545, 37.801201], [-122.4614814, 37.80121569], [-122.46149803, 37.80122985], [-122.46151532, 37.80124349], [-122.46153325, 37.80125658], [-122.4615518, 37.8012691], [-122.46157094, 37.80128106], [-122.46159067, 37.80129243], [-122.46161095, 37.80130319], [-122.46161534, 37.80130533], [-122.46163176, 37.80131334], [-122.46165301, 37.80132281], [-122.461653, 37.80132263], [-122.46165952, 37.80132539], [-122.46166605, 37.80132811], [-122.46167261, 37.8013308], [-122.46167919, 37.80133346], [-122.46168579, 37.80133609], [-122.46169241, 37.80133868], [-122.46169905, 37.80134124], [-122.46170571, 37.80134377], [-122.46171239, 37.80134626], [-122.46171909, 37.80134872], [-122.46172575, 37.80135113], [-122.46172616, 37.80135112], [-122.46178096, 37.80123716], [-122.46182194, 37.80124487], [-122.46181938, 37.80124978], [-122.46176043, 37.80136279], [-122.46176072, 37.80136289], [-122.4618331, 37.8013632], [-122.46190605, 37.80136419], [-122.46190615, 37.80136419], [-122.46190625, 37.80136446], [-122.46193929, 37.80137164], [-122.46197278, 37.801378], [-122.46200647, 37.80138348], [-122.46204036, 37.80138808], [-122.4620744, 37.80139181], [-122.46210857, 37.80139465], [-122.46214285, 37.80139661], [-122.46216384, 37.80139727], [-122.46214604, 37.80141978], [-122.46214499, 37.80143283], [-122.46215913, 37.80143355], [-122.4621915, 37.80143425], [-122.46221293, 37.80143459], [-122.46224888, 37.80143404], [-122.46226682, 37.8014337], [-122.46232072, 37.80143086], [-122.46232105, 37.80143091], [-122.46253572, 37.80141544], [-122.46253692, 37.80140927], [-122.46257078, 37.8014134], [-122.46257114, 37.80141345], [-122.46257076, 37.80141347], [-122.46257073, 37.80141362], [-122.4625778, 37.80141327], [-122.46258487, 37.80141296], [-122.46259194, 37.80141267], [-122.46259902, 37.80141241], [-122.46260609, 37.80141218], [-122.46261317, 37.80141198], [-122.46262025, 37.8014118], [-122.46262732, 37.80141166], [-122.4626344, 37.80141154], [-122.46264148, 37.80141146], [-122.46264856, 37.8014114], [-122.46264896, 37.80141124], [-122.46264896, 37.80141111], [-122.46265076, 37.80141142], [-122.46269614, 37.80141175], [-122.46274362, 37.8014134], [-122.46279094, 37.80141634], [-122.46283808, 37.80142056], [-122.46288498, 37.80142605], [-122.46293162, 37.80143282], [-122.46297794, 37.80144085], [-122.46300417, 37.80144615], [-122.46302391, 37.80145014], [-122.46306948, 37.80146068], [-122.46311461, 37.80147247], [-122.46314403, 37.80148105], [-122.46315927, 37.80148549], [-122.46315395, 37.80150295], [-122.4633223, 37.80153526], [-122.46339559, 37.80155779], [-122.46377557, 37.80163196], [-122.46388506, 37.80166501], [-122.46395905, 37.80168735], [-122.46396175, 37.80168816], [-122.46402284, 37.8017066], [-122.46415572, 37.80173294], [-122.46417613, 37.80173863], [-122.46423952, 37.80172107], [-122.46440213, 37.80175225], [-122.46440277, 37.80175213], [-122.46440281, 37.80175212], [-122.46442785, 37.80174731], [-122.46442799, 37.80174729], [-122.46442821, 37.80174724], [-122.4644281, 37.80174767], [-122.46475194, 37.80180994], [-122.4647905, 37.80180695]]]}}, {"type": "Feature", "properties": {"parcel": "", "area_sqft": 1640.3, "area_acres": 0.038, "labels_inside": 0}, "geometry": {"type": "Polygon", "coordinates": [[[-122.46395905, 37.80168735], [-122.46388506, 37.80166501], [-122.46377557, 37.80163196], [-122.46339559, 37.80155779], [-122.46393831, 37.80172463], [-122.46395063, 37.80170491], [-122.46395905, 37.80168735]]]}}, {"type": "Feature", "properties": {"parcel": "", "area_sqft": 1104.2, "area_acres": 0.025, "labels_inside": 0}, "geometry": {"type": "Polygon", "coordinates": [[[-122.46265076, 37.80141142], [-122.46285167, 37.80144493], [-122.46315395, 37.80150295], [-122.46315927, 37.80148549], [-122.46314403, 37.80148105], [-122.46311461, 37.80147247], [-122.46306948, 37.80146068], [-122.46302391, 37.80145014], [-122.46300417, 37.80144615], [-122.46297794, 37.80144085], [-122.46293162, 37.80143282], [-122.46288498, 37.80142605], [-122.46283808, 37.80142056], [-122.46279094, 37.80141634], [-122.46274362, 37.8014134], [-122.46269614, 37.80141175], [-122.46265076, 37.80141142]]]}}, {"type": "Feature", "properties": {"parcel": "", "area_sqft": 7118.5, "area_acres": 0.163, "labels_inside": 0}, "geometry": {"type": "Polygon", "coordinates": [[[-122.46130178, 37.80136087], [-122.46129437, 37.801296], [-122.46128789, 37.80123917], [-122.46092821, 37.80130796], [-122.46070585, 37.80135048], [-122.46085724, 37.8014398], [-122.46085733, 37.80143978], [-122.46093589, 37.80142898], [-122.46101486, 37.80141906], [-122.46109387, 37.80141006], [-122.46117321, 37.80140197], [-122.46125257, 37.8013948], [-122.46130483, 37.80139069], [-122.46130178, 37.80136087]]]}}, {"type": "Feature", "properties": {"parcel": "", "area_sqft": 4945.2, "area_acres": 0.114, "labels_inside": 0}, "geometry": {"type": "Polygon", "coordinates": [[[-122.46461701, 37.80191851], [-122.46460795, 37.80194549], [-122.46458826, 37.80200413], [-122.46487683, 37.80205741], [-122.4649396, 37.80185839], [-122.46492073, 37.80185464], [-122.46482922, 37.80183853], [-122.4647905, 37.80180695], [-122.46475756, 37.80181933], [-122.46479171, 37.80187652], [-122.46479466, 37.80190809], [-122.46461701, 37.80191851]]]}}, {"type": "Feature", "properties": {"parcel": "61806-5", "area_sqft": 2848.6, "area_acres": 0.065, "labels_inside": 1, "table_area_sqft": 229561.19999999998, "diff_pct": -98.76}, "geometry": {"type": "Polygon", "coordinates": [[[-122.46006238, 37.80169933], [-122.46005576, 37.80170139], [-122.46004974, 37.80170412], [-122.46004436, 37.80170746], [-122.46003969, 37.80171133], [-122.46003577, 37.80171565], [-122.46003265, 37.80172035], [-122.46003037, 37.80172536], [-122.46002899, 37.80173061], [-122.46002855, 37.80173601], [-122.46002911, 37.8017415], [-122.46003071, 37.801747], [-122.46003331, 37.80175226], [-122.46003676, 37.80175703], [-122.46004096, 37.8017613], [-122.46004584, 37.801765], [-122.46005128, 37.80176812], [-122.46005721, 37.80177059], [-122.46006352, 37.8017724], [-122.46007013, 37.8017735], [-122.46007694, 37.80177384], [-122.46008386, 37.8017734], [-122.46009079, 37.80177213], [-122.46009081, 37.80177191], [-122.4603583, 37.80170619], [-122.46035839, 37.80170617], [-122.46035849, 37.80170636], [-122.460365, 37.80170433], [-122.46037102, 37.8017016], [-122.46037639, 37.80169826], [-122.46038106, 37.80169439], [-122.46038499, 37.80169007], [-122.46038811, 37.80168537], [-122.46039039, 37.80168036], [-122.46039177, 37.80167512], [-122.4603922, 37.80166971], [-122.46039165, 37.80166422], [-122.46039004, 37.80165872], [-122.46038745, 37.80165347], [-122.460384, 37.80164869], [-122.46037979, 37.80164442], [-122.46037492, 37.80164072], [-122.46036947, 37.80163761], [-122.46036355, 37.80163513], [-122.46035723, 37.80163332], [-122.46035062, 37.80163223], [-122.46034382, 37.80163188], [-122.4603369, 37.80163232], [-122.46033, 37.80163359], [-122.46032997, 37.80163359], [-122.46032988, 37.80163337], [-122.46006264, 37.80169909], [-122.46006238, 37.80169933]]]}}, {"type": "Feature", "properties": {"parcel": "", "area_sqft": 6462.9, "area_acres": 0.148, "labels_inside": 0}, "geometry": {"type": "Polygon", "coordinates": [[[-122.46607787, 37.80304209], [-122.46534629, 37.80305949], [-122.46534616, 37.80305972], [-122.46533908, 37.8030603], [-122.46533236, 37.80306166], [-122.46532606, 37.80306374], [-122.46532026, 37.80306648], [-122.46531502, 37.80306982], [-122.46531043, 37.80307369], [-122.46530655, 37.80307803], [-122.46530346, 37.80308279], [-122.46530122, 37.80308791], [-122.46529991, 37.80309332], [-122.46529961, 37.80309896], [-122.46530034, 37.80310457], [-122.46530206, 37.80310991], [-122.46530468, 37.80311491], [-122.46530813, 37.80311951], [-122.46531233, 37.80312366], [-122.46531721, 37.80312731], [-122.46532269, 37.80313038], [-122.46532869, 37.80313284], [-122.46533513, 37.80313461], [-122.46534195, 37.80313565], [-122.46534906, 37.80313589], [-122.4653492, 37.80313566], [-122.46608076, 37.80311804], [-122.46608091, 37.80311803], [-122.46608094, 37.80311825], [-122.46608784, 37.80311768], [-122.46609457, 37.80311632], [-122.46610087, 37.80311424], [-122.46610667, 37.8031115], [-122.4661119, 37.80310817], [-122.4661165, 37.8031043], [-122.46612037, 37.80309995], [-122.46612347, 37.80309519], [-122.4661257, 37.80309008], [-122.46612701, 37.80308467], [-122.46612732, 37.80307903], [-122.46612658, 37.80307341], [-122.46612487, 37.80306808], [-122.46612225, 37.80306308], [-122.4661188, 37.80305848], [-122.46611459, 37.80305432], [-122.46610972, 37.80305068], [-122.46610424, 37.8030476], [-122.46609824, 37.80304515], [-122.46609179, 37.80304337], [-122.46608498, 37.80304233], [-122.46607787, 37.80304209]]]}}, {"type": "Feature", "properties": {"parcel": "", "area_sqft": 1593.9, "area_acres": 0.037, "labels_inside": 0}, "geometry": {"type": "Polygon", "coordinates": [[[-122.46847493, 37.80017701], [-122.46846616, 37.79994772], [-122.46840014, 37.79994931], [-122.46840891, 37.8001786], [-122.46847493, 37.80017701]]]}}, {"type": "Feature", "properties": {"parcel": "", "area_sqft": 1768.3, "area_acres": 0.041, "labels_inside": 0}, "geometry": {"type": "Polygon", "coordinates": [[[-122.46848466, 37.80043138], [-122.46847493, 37.80017701], [-122.46840891, 37.8001786], [-122.46841864, 37.80043297], [-122.46848466, 37.80043138]]]}}, {"type": "Feature", "properties": {"parcel": "", "area_sqft": 2299.2, "area_acres": 0.053, "labels_inside": 0}, "geometry": {"type": "Polygon", "coordinates": [[[-122.46848466, 37.80043138], [-122.46851729, 37.80128439], [-122.46854291, 37.80128377], [-122.46851024, 37.80043076], [-122.46848466, 37.80043138]]]}}, {"type": "Feature", "properties": {"parcel": "", "area_sqft": 5929.9, "area_acres": 0.136, "labels_inside": 0}, "geometry": {"type": "Polygon", "coordinates": [[[-122.46851729, 37.80128439], [-122.46848466, 37.80043138], [-122.46841864, 37.80043297], [-122.46845127, 37.80128598], [-122.46851729, 37.80128439]]]}}, {"type": "Feature", "properties": {"parcel": "", "area_sqft": 1312.6, "area_acres": 0.03, "labels_inside": 0}, "geometry": {"type": "Polygon", "coordinates": [[[-122.46851729, 37.80128439], [-122.46853589, 37.80177071], [-122.46856154, 37.8017701], [-122.46854291, 37.80128377], [-122.46851729, 37.80128439]]]}}, {"type": "Feature", "properties": {"parcel": "", "area_sqft": 3380.8, "area_acres": 0.078, "labels_inside": 0}, "geometry": {"type": "Polygon", "coordinates": [[[-122.46853589, 37.80177071], [-122.46851729, 37.80128439], [-122.46845127, 37.80128598], [-122.46846987, 37.80177231], [-122.46853589, 37.80177071]]]}}, {"type": "Feature", "properties": {"parcel": "", "area_sqft": 1642.7, "area_acres": 0.038, "labels_inside": 0}, "geometry": {"type": "Polygon", "coordinates": [[[-122.46854493, 37.80200701], [-122.46853589, 37.80177071], [-122.46846987, 37.80177231], [-122.46847891, 37.80200861], [-122.46854493, 37.80200701]]]}}, {"type": "Feature", "properties": {"parcel": "", "area_sqft": 1642.7, "area_acres": 0.038, "labels_inside": 0}, "geometry": {"type": "Polygon", "coordinates": [[[-122.46855397, 37.80224331], [-122.46854493, 37.80200701], [-122.46847891, 37.80200861], [-122.46848795, 37.80224491], [-122.46855397, 37.80224331]]]}}, {"type": "Feature", "properties": {"parcel": "", "area_sqft": 2356.4, "area_acres": 0.054, "labels_inside": 0}, "geometry": {"type": "Polygon", "coordinates": [[[-122.46855397, 37.80224331], [-122.46858729, 37.80311429], [-122.46861301, 37.80311369], [-122.46857964, 37.8022427], [-122.46855397, 37.80224331]]]}}, {"type": "Feature", "properties": {"parcel": "", "area_sqft": 6054.7, "area_acres": 0.139, "labels_inside": 0}, "geometry": {"type": "Polygon", "coordinates": [[[-122.46858729, 37.80311429], [-122.46855397, 37.80224331], [-122.46848795, 37.80224491], [-122.46852127, 37.80311586], [-122.46858729, 37.80311429]]]}}, {"type": "Feature", "properties": {"parcel": "", "area_sqft": 1416.1, "area_acres": 0.033, "labels_inside": 0}, "geometry": {"type": "Polygon", "coordinates": [[[-122.46859508, 37.80331798], [-122.46858729, 37.80311429], [-122.46852127, 37.80311586], [-122.46852906, 37.80331958], [-122.46859508, 37.80331799], [-122.46859508, 37.80331798]]]}}, {"type": "Feature", "properties": {"parcel": "", "area_sqft": 1593.9, "area_acres": 0.037, "labels_inside": 0}, "geometry": {"type": "Polygon", "coordinates": [[[-122.46840891, 37.8001786], [-122.46840014, 37.79994931], [-122.46833412, 37.79995091], [-122.46834289, 37.80018019], [-122.46840891, 37.8001786]]]}}, {"type": "Feature", "properties": {"parcel": "", "area_sqft": 1768.3, "area_acres": 0.041, "labels_inside": 0}, "geometry": {"type": "Polygon", "coordinates": [[[-122.46841864, 37.80043297], [-122.46840891, 37.8001786], [-122.46834289, 37.80018019], [-122.46835262, 37.80043456], [-122.46841864, 37.80043297]]]}}, {"type": "Feature", "properties": {"parcel": "", "area_sqft": 5929.9, "area_acres": 0.136, "labels_inside": 0}, "geometry": {"type": "Polygon", "coordinates": [[[-122.46845127, 37.80128598], [-122.46841864, 37.80043297], [-122.46835262, 37.80043456], [-122.46838525, 37.80128757], [-122.46845127, 37.80128598]]]}}, {"type": "Feature", "properties": {"parcel": "", "area_sqft": 3380.8, "area_acres": 0.078, "labels_inside": 0}, "geometry": {"type": "Polygon", "coordinates": [[[-122.46846987, 37.80177231], [-122.46845127, 37.80128598], [-122.46838525, 37.80128757], [-122.46840386, 37.8017739], [-122.46846987, 37.80177231]]]}}, {"type": "Feature", "properties": {"parcel": "", "area_sqft": 1642.7, "area_acres": 0.038, "labels_inside": 0}, "geometry": {"type": "Polygon", "coordinates": [[[-122.46847891, 37.80200861], [-122.46846987, 37.80177231], [-122.46840386, 37.8017739], [-122.46841289, 37.8020102], [-122.46847891, 37.80200861]]]}}, {"type": "Feature", "properties": {"parcel": "", "area_sqft": 1642.7, "area_acres": 0.038, "labels_inside": 0}, "geometry": {"type": "Polygon", "coordinates": [[[-122.46848795, 37.80224491], [-122.46847891, 37.80200861], [-122.46841289, 37.8020102], [-122.46842193, 37.8022465], [-122.46848795, 37.80224491]]]}}, {"type": "Feature", "properties": {"parcel": "", "area_sqft": 6054.5, "area_acres": 0.139, "labels_inside": 0}, "geometry": {"type": "Polygon", "coordinates": [[[-122.46852127, 37.80311586], [-122.46848795, 37.80224491], [-122.46842193, 37.8022465], [-122.46845525, 37.80311742], [-122.46852127, 37.80311586]]]}}, {"type": "Feature", "properties": {"parcel": "", "area_sqft": 1416.3, "area_acres": 0.033, "labels_inside": 0}, "geometry": {"type": "Polygon", "coordinates": [[[-122.46852906, 37.80331958], [-122.46852127, 37.80311586], [-122.46845525, 37.80311742], [-122.46846304, 37.80332117], [-122.46852906, 37.80331958]]]}}, {"type": "Feature", "properties": {"parcel": "", "area_sqft": 1598.7, "area_acres": 0.037, "labels_inside": 0}, "geometry": {"type": "Polygon", "coordinates": [[[-122.46834289, 37.80018019], [-122.46833412, 37.79995091], [-122.4682679, 37.7999525], [-122.46827668, 37.80018179], [-122.46834289, 37.80018019]]]}}, {"type": "Feature", "properties": {"parcel": "", "area_sqft": 1773.3, "area_acres": 0.041, "labels_inside": 0}, "geometry": {"type": "Polygon", "coordinates": [[[-122.46835262, 37.80043456], [-122.46834289, 37.80018019], [-122.46827668, 37.80018179], [-122.46828643, 37.80043616], [-122.46835262, 37.80043456]]]}}, {"type": "Feature", "properties": {"parcel": "", "area_sqft": 5944.0, "area_acres": 0.136, "labels_inside": 0}, "geometry": {"type": "Polygon", "coordinates": [[[-122.46838525, 37.80128757], [-122.46835262, 37.80043456], [-122.46828643, 37.80043616], [-122.4683191, 37.80128917], [-122.46838525, 37.80128757]]]}}, {"type": "Feature", "properties": {"parcel": "", "area_sqft": 3387.0, "area_acres": 0.078, "labels_inside": 0}, "geometry": {"type": "Polygon", "coordinates": [[[-122.46840386, 37.8017739], [-122.46838525, 37.80128757], [-122.4683191, 37.80128917], [-122.46833773, 37.80177549], [-122.46840386, 37.8017739]]]}}, {"type": "Feature", "properties": {"parcel": "", "area_sqft": 1645.2, "area_acres": 0.038, "labels_inside": 0}, "geometry": {"type": "Polygon", "coordinates": [[[-122.46841289, 37.8020102], [-122.46840386, 37.8017739], [-122.46833773, 37.80177549], [-122.46834678, 37.80201179], [-122.46841289, 37.8020102]]]}}, {"type": "Feature", "properties": {"parcel": "", "area_sqft": 1644.9, "area_acres": 0.038, "labels_inside": 0}, "geometry": {"type": "Polygon", "coordinates": [[[-122.46842193, 37.8022465], [-122.46841289, 37.8020102], [-122.46834678, 37.80201179], [-122.46835583, 37.80224809], [-122.46842193, 37.8022465]]]}}, {"type": "Feature", "properties": {"parcel": "", "area_sqft": 6059.9, "area_acres": 0.139, "labels_inside": 0}, "geometry": {"type": "Polygon", "coordinates": [[[-122.46845525, 37.80311742], [-122.46842193, 37.8022465], [-122.46835583, 37.80224809], [-122.46838919, 37.80311898], [-122.46845525, 37.80311742]]]}}, {"type": "Feature", "properties": {"parcel": "", "area_sqft": 1417.3, "area_acres": 0.033, "labels_inside": 0}, "geometry": {"type": "Polygon", "coordinates": [[[-122.46846304, 37.80332117], [-122.46845525, 37.80311742], [-122.46838919, 37.80311898], [-122.46839699, 37.80332276], [-122.46846304, 37.80332117]]]}}, {"type": "Feature", "properties": {"parcel": "", "area_sqft": 1593.9, "area_acres": 0.037, "labels_inside": 0}, "geometry": {"type": "Polygon", "coordinates": [[[-122.46827668, 37.80018179], [-122.4682679, 37.7999525], [-122.46820188, 37.7999541], [-122.46821067, 37.80018338], [-122.46827668, 37.80018179]]]}}, {"type": "Feature", "properties": {"parcel": "", "area_sqft": 1768.3, "area_acres": 0.041, "labels_inside": 0}, "geometry": {"type": "Polygon", "coordinates": [[[-122.46828643, 37.80043616], [-122.46827668, 37.80018179], [-122.46821067, 37.80018338], [-122.46822041, 37.80043775], [-122.46828643, 37.80043616]]]}}, {"type": "Feature", "properties": {"parcel": "", "area_sqft": 5929.9, "area_acres": 0.136, "labels_inside": 0}, "geometry": {"type": "Polygon", "coordinates": [[[-122.4683191, 37.80128917], [-122.46828643, 37.80043616], [-122.46822041, 37.80043775], [-122.46825308, 37.80129076], [-122.4683191, 37.80128917]]]}}, {"type": "Feature", "properties": {"parcel": "", "area_sqft": 3380.8, "area_acres": 0.078, "labels_inside": 0}, "geometry": {"type": "Polygon", "coordinates": [[[-122.46833773, 37.80177549], [-122.4683191, 37.80128917], [-122.46825308, 37.80129076], [-122.46826983, 37.80172813], [-122.46827171, 37.80177709], [-122.46833773, 37.80177549]]]}}, {"type": "Feature", "properties": {"parcel": "", "area_sqft": 1642.7, "area_acres": 0.038, "labels_inside": 0}, "geometry": {"type": "Polygon", "coordinates": [[[-122.46834678, 37.80201179], [-122.46833773, 37.80177549], [-122.46827171, 37.80177709], [-122.46828076, 37.80201338], [-122.46834678, 37.80201179]]]}}, {"type": "Feature", "properties": {"parcel": "", "area_sqft": 1642.7, "area_acres": 0.038, "labels_inside": 0}, "geometry": {"type": "Polygon", "coordinates": [[[-122.46835583, 37.80224809], [-122.46834678, 37.80201179], [-122.46828076, 37.80201338], [-122.46828131, 37.8020278], [-122.4682892, 37.80223367], [-122.46828981, 37.80224968], [-122.46835583, 37.80224809]]]}}, {"type": "Feature", "properties": {"parcel": "", "area_sqft": 6054.1, "area_acres": 0.139, "labels_inside": 0}, "geometry": {"type": "Polygon", "coordinates": [[[-122.46838919, 37.80311898], [-122.46835583, 37.80224809], [-122.46828981, 37.80224968], [-122.46829401, 37.80235926], [-122.46829708, 37.80243955], [-122.46830497, 37.80264542], [-122.46831285, 37.8028513], [-122.46831628, 37.80294074], [-122.46832053, 37.80305168], [-122.46832317, 37.80312054], [-122.46838919, 37.80311898]]]}}, {"type": "Feature", "properties": {"parcel": "", "area_sqft": 1416.8, "area_acres": 0.033, "labels_inside": 0}, "geometry": {"type": "Polygon", "coordinates": [[[-122.46839699, 37.80332276], [-122.46838919, 37.80311898], [-122.46832317, 37.80312054], [-122.46833097, 37.80332435], [-122.46839699, 37.80332276]]]}}, {"type": "Feature", "properties": {"parcel": "", "area_sqft": 877.6, "area_acres": 0.02, "labels_inside": 0}, "geometry": {"type": "Polygon", "coordinates": [[[-122.46828076, 37.80201338], [-122.46827171, 37.80177709], [-122.46823711, 37.80177779], [-122.4682448, 37.80201412], [-122.46828076, 37.80201338]]]}}, {"type": "Feature", "properties": {"parcel": "", "area_sqft": 862.5, "area_acres": 0.02, "labels_inside": 0}, "geometry": {"type": "Polygon", "coordinates": [[[-122.46831285, 37.8028513], [-122.46830497, 37.80264542], [-122.46826576, 37.80264637], [-122.46827249, 37.80285227], [-122.46831285, 37.8028513]]]}}, {"type": "Feature", "properties": {"parcel": "", "area_sqft": 908.3, "area_acres": 0.021, "labels_inside": 0}, "geometry": {"type": "Polygon", "coordinates": [[[-122.46833097, 37.80332435], [-122.46832317, 37.80312054], [-122.46828134, 37.80312142], [-122.46828817, 37.80332539], [-122.46833097, 37.80332435]]]}}, {"type": "Feature", "properties": {"parcel": "", "area_sqft": 4872.9, "area_acres": 0.112, "labels_inside": 0}, "geometry": {"type": "Polygon", "coordinates": [[[-122.46056396, 37.80054566], [-122.46132735, 37.8005273], [-122.46132503, 37.80046668], [-122.46117916, 37.80047019], [-122.46096179, 37.80047542], [-122.46074153, 37.80048071], [-122.46056164, 37.80048504], [-122.46056396, 37.80054566]]]}}, {"type": "Feature", "properties": {"parcel": "", "area_sqft": 3802.3, "area_acres": 0.087, "labels_inside": 0}, "geometry": {"type": "Polygon", "coordinates": [[[-122.45807988, 37.80126661], [-122.45874036, 37.80125074], [-122.45873828, 37.80119607], [-122.45860653, 37.80119924], [-122.45831449, 37.80120625], [-122.4580778, 37.80121194], [-122.45807988, 37.80126661]]]}}, {"type": "Feature", "properties": {"parcel": "", "area_sqft": 4854.5, "area_acres": 0.111, "labels_inside": 0}, "geometry": {"type": "Polygon", "coordinates": [[[-122.45961074, 37.80083738], [-122.46037414, 37.80081902], [-122.46037183, 37.80075863], [-122.46022596, 37.80076214], [-122.46000859, 37.80076737], [-122.45978833, 37.80077266], [-122.45960844, 37.80077699], [-122.45961074, 37.80083738]]]}}, {"type": "Feature", "properties": {"parcel": "", "area_sqft": 5299.5, "area_acres": 0.122, "labels_inside": 0}, "geometry": {"type": "Polygon", "coordinates": [[[-122.45967846, 37.80353269], [-122.45967611, 37.80347115], [-122.45947661, 37.80347595], [-122.45917735, 37.80348314], [-122.4588582, 37.80349081], [-122.45886055, 37.80355235], [-122.45967846, 37.80353269]]]}}]}